start=new Date('2021-10-12T00:00:00.000Z').valueOf();
sats=[{"OBJECT_NAME":"STARLINK-2441","SEMIMAJOR_AXIS":"6925.376","REV_AT_EPOCH":"2540","REF_FRAME":"TEME","OBJECT_TYPE":"PAYLOAD","FILE":"3157563","MEAN_MOTION_DDOT":"0.0000000000000","TLE_LINE2":"2 48335  53.0581 128.3004 0001734  76.3364 283.7818 15.06391114 25408","ELEMENT_SET_NO":"999","PERIOD":"95.593","TIME_SYSTEM":"UTC","APOAPSIS":"548.442","EPHEMERIS_TYPE":"0","BSTAR":"-0.00005180900000","OBJECT_ID":"2021-036BM","CLASSIFICATION_TYPE":"U","ECCENTRICITY":"0.00017340","EPOCH":"2021-10-11T21:18:44.380224","RA_OF_ASC_NODE":"128.3004","MEAN_MOTION":"15.06391114","SITE":"AFETR","LAUNCH_DATE":"2021-04-29","DECAY_DATE":null,"PERIAPSIS":"546.040","COUNTRY_CODE":"US","NORAD_CAT_ID":"48335","MEAN_MOTION_DOT":"-0.00001053","TLE_LINE1":"1 48335U 21036BM  21284.88801366 -.00001053  00000-0 -51809-4 0  9990","GP_ID":"186930660","MEAN_ELEMENT_THEORY":"SGP4","INCLINATION":"53.0581","CENTER_NAME":"EARTH","ARG_OF_PERICENTER":"76.3364","RCS_SIZE":"LARGE","MEAN_ANOMALY":"283.7818"},{"PERIOD":"95.592","ELEMENT_SET_NO":"999","TLE_LINE2":"2 48353  53.0565  28.8760 0001433 105.3137 254.8010 15.06397725 24967","FILE":"3157233","MEAN_MOTION_DDOT":"0.0000000000000","APOAPSIS":"548.213","TIME_SYSTEM":"UTC","CLASSIFICATION_TYPE":"U","OBJECT_ID":"2021-038A","BSTAR":"-0.00008369500000","EPHEMERIS_TYPE":"0","LAUNCH_DATE":"2021-05-04","MEAN_MOTION":"15.06397725","SITE":"AFETR","RA_OF_ASC_NODE":"28.8760","EPOCH":"2021-10-11T18:15:36.518112","ECCENTRICITY":"0.00014330","OBJECT_NAME":"STARLINK-2613","SEMIMAJOR_AXIS":"6925.356","REV_AT_EPOCH":"2496","OBJECT_TYPE":"PAYLOAD","REF_FRAME":"TEME","RCS_SIZE":"LARGE","MEAN_ANOMALY":"254.8010","NORAD_CAT_ID":"48353","COUNTRY_CODE":"US","PERIAPSIS":"546.228","DECAY_DATE":null,"GP_ID":"186900611","TLE_LINE1":"1 48353U 21038A   21284.76083933 -.00001528  00000-0 -83695-4 0  9996","MEAN_MOTION_DOT":"-0.00001528","MEAN_ELEMENT_THEORY":"SGP4","ARG_OF_PERICENTER":"105.3137","CENTER_NAME":"EARTH","INCLINATION":"53.0565"},{"MEAN_ANOMALY":"263.7760","RCS_SIZE":"LARGE","INCLINATION":"53.0567","CENTER_NAME":"EARTH","ARG_OF_PERICENTER":"96.3371","MEAN_ELEMENT_THEORY":"SGP4","TLE_LINE1":"1 48354U 21038B   21284.55810673  .00000745  00000-0  68890-4 0  9991","MEAN_MOTION_DOT":"0.00000745","GP_ID":"186896209","PERIAPSIS":"546.352","DECAY_DATE":null,"NORAD_CAT_ID":"48354","COUNTRY_CODE":"US","RA_OF_ASC_NODE":"29.7716","EPOCH":"2021-10-11T13:23:40.421472","ECCENTRICITY":"0.00012420","LAUNCH_DATE":"2021-05-04","SITE":"AFETR","MEAN_MOTION":"15.06400485","BSTAR":"0.00006889000000","EPHEMERIS_TYPE":"0","CLASSIFICATION_TYPE":"U","OBJECT_ID":"2021-038B","TIME_SYSTEM":"UTC","APOAPSIS":"548.072","MEAN_MOTION_DDOT":"0.0000000000000","FILE":"3157068","PERIOD":"95.592","ELEMENT_SET_NO":"999","TLE_LINE2":"2 48354  53.0567  29.7716 0001242  96.3371 263.7760 15.06400485 24349","REF_FRAME":"TEME","OBJECT_TYPE":"PAYLOAD","REV_AT_EPOCH":"2434","SEMIMAJOR_AXIS":"6925.347","OBJECT_NAME":"STARLINK-2674"},{"MEAN_MOTION_DOT":"0.00000144","TLE_LINE1":"1 48355U 21038C   21284.62077449  .00000144  00000-0  28536-4 0  9992","GP_ID":"186930662","DECAY_DATE":null,"PERIAPSIS":"546.245","COUNTRY_CODE":"US","NORAD_CAT_ID":"48355","CENTER_NAME":"EARTH","INCLINATION":"53.0571","ARG_OF_PERICENTER":"90.3656","MEAN_ELEMENT_THEORY":"SGP4","RCS_SIZE":"LARGE","MEAN_ANOMALY":"269.7494","SEMIMAJOR_AXIS":"6925.357","REV_AT_EPOCH":"2435","OBJECT_NAME":"STARLINK-2635","REF_FRAME":"TEME","OBJECT_TYPE":"PAYLOAD","TIME_SYSTEM":"UTC","APOAPSIS":"548.198","FILE":"3157563","MEAN_MOTION_DDOT":"0.0000000000000","TLE_LINE2":"2 48355  53.0571  29.4966 0001410  90.3656 269.7494 15.06397351 24354","PERIOD":"95.592","ELEMENT_SET_NO":"999","EPOCH":"2021-10-11T14:53:54.915936","ECCENTRICITY":"0.00014100","RA_OF_ASC_NODE":"29.4966","MEAN_MOTION":"15.06397351","SITE":"AFETR","LAUNCH_DATE":"2021-05-04","EPHEMERIS_TYPE":"0","BSTAR":"0.00002853600000","OBJECT_ID":"2021-038C","CLASSIFICATION_TYPE":"U"},{"MEAN_MOTION_DDOT":"0.0000000000000","FILE":"3157563","TLE_LINE2":"2 48356  53.0685  29.4515 0001385  74.9015 285.2128 15.06408120 24353","PERIOD":"95.592","ELEMENT_SET_NO":"999","TIME_SYSTEM":"UTC","APOAPSIS":"548.148","EPHEMERIS_TYPE":"0","BSTAR":"0.00021523000000","OBJECT_ID":"2021-038D","CLASSIFICATION_TYPE":"U","ECCENTRICITY":"0.00013850","EPOCH":"2021-10-11T14:48:36.271008","RA_OF_ASC_NODE":"29.4515","MEAN_MOTION":"15.06408120","SITE":"AFETR","LAUNCH_DATE":"2021-05-04","OBJECT_NAME":"STARLINK-2637","SEMIMAJOR_AXIS":"6925.324","REV_AT_EPOCH":"2435","REF_FRAME":"TEME","OBJECT_TYPE":"PAYLOAD","RCS_SIZE":"LARGE","MEAN_ANOMALY":"285.2128","DECAY_DATE":null,"PERIAPSIS":"546.230","COUNTRY_CODE":"US","NORAD_CAT_ID":"48356","MEAN_MOTION_DOT":"0.00002926","TLE_LINE1":"1 48356U 21038D   21284.61708647  .00002926  00000-0  21523-3 0  9991","GP_ID":"186929410","MEAN_ELEMENT_THEORY":"SGP4","CENTER_NAME":"EARTH","INCLINATION":"53.0685","ARG_OF_PERICENTER":"74.9015"},{"APOAPSIS":"548.085","TIME_SYSTEM":"UTC","TLE_LINE2":"2 48357  53.0564  29.5227 0001265 103.2237 256.8893 15.06401509 24357","ELEMENT_SET_NO":"999","PERIOD":"95.592","FILE":"3157563","MEAN_MOTION_DDOT":"0.0000000000000","MEAN_MOTION":"15.06401509","SITE":"AFETR","LAUNCH_DATE":"2021-05-04","ECCENTRICITY":"0.00012650","EPOCH":"2021-10-11T14:43:18.134112","RA_OF_ASC_NODE":"29.5227","OBJECT_ID":"2021-038E","CLASSIFICATION_TYPE":"U","EPHEMERIS_TYPE":"0","BSTAR":"0.00019121000000","SEMIMAJOR_AXIS":"6925.344","REV_AT_EPOCH":"2435","OBJECT_NAME":"STARLINK-2636","OBJECT_TYPE":"PAYLOAD","REF_FRAME":"TEME","RCS_SIZE":"LARGE","MEAN_ANOMALY":"256.8893","GP_ID":"186929161","MEAN_MOTION_DOT":"0.00002568","TLE_LINE1":"1 48357U 21038E   21284.61340433  .00002568  00000-0  19121-3 0  9990","COUNTRY_CODE":"US","NORAD_CAT_ID":"48357","DECAY_DATE":null,"PERIAPSIS":"546.333","ARG_OF_PERICENTER":"103.2237","INCLINATION":"53.0564","CENTER_NAME":"EARTH","MEAN_ELEMENT_THEORY":"SGP4"},{"PERIOD":"95.592","ELEMENT_SET_NO":"999","TLE_LINE2":"2 48358  53.0534  29.5547 0001418  86.4654 273.6497 15.06398798 24346","FILE":"3157563","MEAN_MOTION_DDOT":"0.0000000000000","APOAPSIS":"548.199","TIME_SYSTEM":"UTC","CLASSIFICATION_TYPE":"U","OBJECT_ID":"2021-038F","BSTAR":"-0.00005098100000","EPHEMERIS_TYPE":"0","LAUNCH_DATE":"2021-05-04","MEAN_MOTION":"15.06398798","SITE":"AFETR","RA_OF_ASC_NODE":"29.5547","ECCENTRICITY":"0.00014180","EPOCH":"2021-10-11T14:37:59.630880","OBJECT_NAME":"STARLINK-2624","SEMIMAJOR_AXIS":"6925.352","REV_AT_EPOCH":"2434","OBJECT_TYPE":"PAYLOAD","REF_FRAME":"TEME","RCS_SIZE":"LARGE","MEAN_ANOMALY":"273.6497","NORAD_CAT_ID":"48358","COUNTRY_CODE":"US","PERIAPSIS":"546.235","DECAY_DATE":null,"GP_ID":"186930412","TLE_LINE1":"1 48358U 21038F   21284.60971795 -.00001041  00000-0 -50981-4 0  9998","MEAN_MOTION_DOT":"-0.00001041","MEAN_ELEMENT_THEORY":"SGP4","ARG_OF_PERICENTER":"86.4654","CENTER_NAME":"EARTH","INCLINATION":"53.0534"},{"RCS_SIZE":"LARGE","MEAN_ANOMALY":"258.3018","COUNTRY_CODE":"US","NORAD_CAT_ID":"48359","DECAY_DATE":null,"PERIAPSIS":"546.618","GP_ID":"186930163","MEAN_MOTION_DOT":"-0.00001252","TLE_LINE1":"1 48359U 21038G   21284.67237395 -.00001252  00000-0 -65219-4 0  9991","MEAN_ELEMENT_THEORY":"SGP4","ARG_OF_PERICENTER":"101.8069","CENTER_NAME":"EARTH","INCLINATION":"53.0569","TLE_LINE2":"2 48359  53.0569  29.2563 0000877 101.8069 258.3018 15.06396288 24352","PERIOD":"95.592","ELEMENT_SET_NO":"999","MEAN_MOTION_DDOT":"0.0000000000000","FILE":"3157563","APOAPSIS":"547.832","TIME_SYSTEM":"UTC","OBJECT_ID":"2021-038G","CLASSIFICATION_TYPE":"U","EPHEMERIS_TYPE":"0","BSTAR":"-0.00006521900000","SITE":"AFETR","MEAN_MOTION":"15.06396288","LAUNCH_DATE":"2021-05-04","EPOCH":"2021-10-11T16:08:13.109280","ECCENTRICITY":"0.00008770","RA_OF_ASC_NODE":"29.2563","OBJECT_NAME":"STARLINK-2628","REV_AT_EPOCH":"2435","SEMIMAJOR_AXIS":"6925.360","OBJECT_TYPE":"PAYLOAD","REF_FRAME":"TEME"},{"INCLINATION":"53.0562","CENTER_NAME":"EARTH","ARG_OF_PERICENTER":"89.1696","MEAN_ELEMENT_THEORY":"SGP4","MEAN_MOTION_DOT":"0.00000610","TLE_LINE1":"1 48360U 21038H   21284.66868404  .00000610  00000-0  59863-4 0  9996","GP_ID":"186928911","DECAY_DATE":null,"PERIAPSIS":"546.357","COUNTRY_CODE":"US","NORAD_CAT_ID":"48360","MEAN_ANOMALY":"270.9432","RCS_SIZE":"LARGE","REF_FRAME":"TEME","OBJECT_TYPE":"PAYLOAD","REV_AT_EPOCH":"2435","SEMIMAJOR_AXIS":"6925.335","OBJECT_NAME":"STARLINK-2622","ECCENTRICITY":"0.00012170","EPOCH":"2021-10-11T16:02:54.301056","RA_OF_ASC_NODE":"29.2678","SITE":"AFETR","MEAN_MOTION":"15.06404389","LAUNCH_DATE":"2021-05-04","EPHEMERIS_TYPE":"0","BSTAR":"0.00005986300000","OBJECT_ID":"2021-038H","CLASSIFICATION_TYPE":"U","TIME_SYSTEM":"UTC","APOAPSIS":"548.043","MEAN_MOTION_DDOT":"0.0000000000000","FILE":"3157563","TLE_LINE2":"2 48360  53.0562  29.2678 0001217  89.1696 270.9432 15.06404389 24359","ELEMENT_SET_NO":"999","PERIOD":"95.592"},{"MEAN_ELEMENT_THEORY":"SGP4","ARG_OF_PERICENTER":"100.2570","INCLINATION":"53.0556","CENTER_NAME":"EARTH","COUNTRY_CODE":"US","NORAD_CAT_ID":"48361","DECAY_DATE":null,"PERIAPSIS":"546.470","GP_ID":"186895458","MEAN_MOTION_DOT":"0.00000798","TLE_LINE1":"1 48361U 21038J   21284.59865972  .00000798  00000-0  72457-4 0  9997","MEAN_ANOMALY":"259.8540","RCS_SIZE":"LARGE","OBJECT_TYPE":"PAYLOAD","REF_FRAME":"TEME","OBJECT_NAME":"STARLINK-2591","SEMIMAJOR_AXIS":"6925.346","REV_AT_EPOCH":"2434","OBJECT_ID":"2021-038J","CLASSIFICATION_TYPE":"U","EPHEMERIS_TYPE":"0","BSTAR":"0.00007245700000","MEAN_MOTION":"15.06400851","SITE":"AFETR","LAUNCH_DATE":"2021-05-04","ECCENTRICITY":"0.00010700","EPOCH":"2021-10-11T14:22:04.199808","RA_OF_ASC_NODE":"29.6681","TLE_LINE2":"2 48361  53.0556  29.6681 0001070 100.2570 259.8540 15.06400851 24349","ELEMENT_SET_NO":"999","PERIOD":"95.592","MEAN_MOTION_DDOT":"0.0000000000000","FILE":"3157068","APOAPSIS":"547.952","TIME_SYSTEM":"UTC"}];
